satname,norad_id,inclination_deg,eccentricity,mean_motion_rev_per_day,perigee_km,apogee_km,l1,l2
STARLINK-1351,45697,53.0432,0.000245,15.66639496,366.874772512263,370.1806382178929,1 45697U 20035AS  26160.63844475  .00045047  00000+0  42451-3 0  9995,2 45697  53.0432 293.5444 0002450 149.0289 211.0871 15.66639496333728
STARLINK-1400,45700,53.0422,0.0001855,15.65368732,370.92631622432236,373.4306832747279,1 45700U 20035AV  26160.84564135  .00048666  00000+0  48189-3 0  9999,2 45700  53.0422 295.1080 0001855  50.2140 309.9038 15.65368732333715
STARLINK-1403,45701,53.1558,0.0001296,15.34149412,462.5614724956513,464.3348113644397,1 45701U 20035AW  26160.78225942  .00044694  00000+0  13366-2 0  9998,2 45701  53.1558 328.2768 0001296 218.4138 141.6772 15.34149412333255
STARLINK-1407,45703,53.027,0.0006611,15.74214337,342.42190584106265,351.3137071962419,1 45703U 20035AY  26160.44212253  .00067222  00000+0  45856-3 0  9996,2 45703  53.0270 223.5407 0006611  31.9631 328.1787 15.74214337334685
STARLINK-1411,45706,53.0276,0.0011112,15.95060611,280.7379313488427,295.553077586771,1 45706U 20035BB  26161.00004630  .00471057  10054-3  11804-2 0  9994,2 45706  53.0276 241.7435 0011112 349.7356 131.7786 15.95060611  6010
STARLINK-1423,45710,53.0433,0.0005123,15.69405263,357.14667775158887,364.0511865876906,1 45710U 20035BF  26160.64475824  .00056744  00000+0  47566-3 0  9998,2 45710  53.0433 292.4869 0005123  92.6932 267.4671 15.69405263333721
STARLINK-1433,45711,53.0431,0.0004775,15.68970246,358.62613375222645,365.0628160607621,1 45711U 20035BG  26160.82185609  .00058222  00000+0  49669-3 0  9997,2 45711  53.0431 290.2191 0004775 101.1305 259.0248 15.68970246333775
STARLINK-1434,45712,53.0506,0.0001,15.34595386,461.43854749859383,462.80659941328486,1 45712U 20035BH  26160.69197487  .00046585  00000+0  13727-2 0  9994,2 45712  53.0506 311.2375 0001000  68.6680 291.4428 15.34595386333487
STARLINK-1465,45731,53.0435,0.0001377,15.68574236,362.0505815400238,363.90708484048537,1 45731U 20038B   26160.19809366  .00048982  00000+0  42616-3 0  9992,2 45731  53.0435 138.8884 0001377  90.3787 269.7387 15.68574236330649
STARLINK-1471,45735,53.0449,0.0002863,15.53627042,404.20424724109944,408.08892802337687,1 45735U 20038F   26160.45079099  .00024234  00000+0  37945-3 0  9990,2 45735  53.0449  60.7868 0002863 122.4455 237.6832 15.53627042331775
STARLINK-1480,45741,53.0477,0.0006459,15.65505484,367.4256111354598,376.14516087370066,1 45741U 20038M   26160.63270487  .00045652  00000+0  44972-3 0  9996,2 45741  53.0477 130.4906 0006459  40.3243 319.8250 15.65505484330818
STARLINK-1500,45744,53.035,0.0001909,15.39302452,446.8676636547925,449.4739479750524,1 45744U 20038Q   26160.61426149  .00023442  00000+0  60036-3 0  9997,2 45744  53.0350 119.9957 0001909 119.4203 240.6991 15.39302452330957
STARLINK-1504,45746,53.02,0.0003357,15.59157349,387.8224942588131,392.36668494807327,1 45746U 20038S   26160.01018841  .00031499  00000+0  39989-3 0  9993,2 45746  53.0200  59.5915 0003357 107.7735 252.3643 15.59157349331731
STARLINK-1506,45747,53.0759,0.0001982,15.2834558,479.3981981758234,482.11706400758794,1 45747U 20038T   26160.66092667  .00007343  00000+0  27478-3 0  9994,2 45747  53.0759 136.1621 0001982 159.6989 200.4089 15.28345580330746
STARLINK-1464,45751,53.0453,0.0004581,15.54247698,401.23330759398505,407.44741335164963,1 45751U 20038X   26160.60592516  .00025125  00000+0  38428-3 0  9996,2 45751  53.0453 123.8450 0004581  45.9469 314.1918 15.54247698330905
STARLINK-1477,45754,53.0466,0.0001531,15.19012177,507.77035862687535,509.8791463154812,1 45754U 20038AA  26160.68783965  .00027028  00000+0  12856-2 0  9997,2 45754  53.0466 153.2867 0001531   1.6117 358.4882 15.19012177330490
STARLINK-1478,45755,53.0444,0.0004768,15.68583661,359.7376788731217,366.1659811814361,1 45755U 20038AB  26160.09786004  .00048859  00000+0  42476-3 0  9997,2 45755  53.0444 110.9165 0004768  80.6177 279.5378 15.68583661331024
STARLINK-1493,45759,53.045,0.0006853,15.65251785,367.8885048866232,377.1409481429837,1 45759U 20038AF  26160.82594677  .00051802  00000+0  51429-3 0  9995,2 45759  53.0450 117.0617 0006853  37.2076 322.9412 15.65251785331004
STARLINK-1494,45760,53.0344,0.0006232,16.15551048,227.53970128149376,235.7781509237875,1 45760U 20038AG  26160.90966475  .01003829  67477-3  71370-3 0  9994,2 45760  53.0344  43.5554 0006232 244.2970 115.7423 16.15551048332041
STARLINK-1502,45764,53.0441,0.0005841,15.62050208,377.7872241421537,385.6841073903015,1 45764U 20038AL  26160.62613195  .00096546  00000+0  10761-2 0  9993,2 45764  53.0441 121.8925 0005841  11.6783 348.4364 15.62050208330936
STARLINK-1470,45772,53.0415,0.0004098,15.35399743,456.93124647809145,462.5355650626607,1 45772U 20038AU  26160.14721421  .00044465  00000+0  12778-2 0  9994,2 45772  53.0415 107.3136 0004098  42.6504 317.4816 15.35399743331093
STARLINK-1482,45773,53.1567,0.000485,15.37982262,448.76402058810345,455.38932785209727,1 45773U 20038AV  26160.61000551  .00043391  00000+0  11480-2 0  9997,2 45773  53.1567 121.5545 0004850  37.1784 322.9555 15.37982262330951
STARLINK-1496,45780,53.0447,6.62e-05,15.68870233,361.6847082447248,362.5771197165368,1 45780U 20038BC  26160.52824973  .00056992  00000+0  48859-3 0  9999,2 45780  53.0447  92.8136 0000662 139.1020 221.0046 15.68870233331317
STARLINK-1513,45786,53.1607,0.0001343,15.31701492,469.81574407174503,471.655351238046,1 45786U 20038BJ  26160.59904832  .00001066  00000+0  46103-4 0  9998,2 45786  53.1607 123.6439 0001343  86.5092 273.6063 15.31701492330920
STARLINK-1522,46027,53.0616,0.0002828,15.1322327,524.4252405533807,528.330434145385,1 46027U 20055A   26160.47919422  .00024579  00000+0  13796-2 0  9998,2 46027  53.0616  71.4510 0002828  59.4106 300.7165 15.13223270322763
STARLINK-1523,46028,53.1608,9.9e-05,15.30548689,473.4957657753921,474.85252338201826,1 46028U 20055B   26160.41876324  .00010623  00000+0  36635-3 0  9999,2 46028  53.1608  60.6193 0000990 107.1366 252.9744 15.30548689322944
STARLINK-1526,46029,53.1574,0.0001118,15.30193096,474.4694765303502,476.00189066240273,1 46029U 20055C   26160.41383960  .00005958  00000+0  21317-3 0  9995,2 46029  53.1574  60.6652 0001118  87.4038 272.7090 15.30193096322937
STARLINK-1555,46032,53.1596,0.0001355,15.30195001,474.3013643449831,476.1586268007841,1 46032U 20055F   26160.00614248  .00004275  00000+0  15639-3 0  9991,2 46032  53.1596  62.5420 0001355  86.2242 273.8913 15.30195001322873
STARLINK-1556,46033,53.1606,0.0001511,15.30210323,474.14871013491666,476.21978381575354,1 46033U 20055G   26160.44647826  .00004273  00000+0  15628-3 0  9994,2 46033  53.1606  60.5151 0001511  80.5208 279.5964 15.30210323322917
STARLINK-1557,46034,53.1613,0.0001572,15.30197712,474.1445529641869,476.2992490026563,1 46034U 20055H   26159.99244185  .00000382  00000+0  25035-4 0  9995,2 46034  53.1613  62.6166 0001572 110.1600 249.9570 15.30197712322840
STARLINK-1558,46035,53.1611,0.0001133,15.30192404,474.4612624408064,476.01423715911096,1 46035U 20055J   26160.45702581  .00003429  00000+0  12788-3 0  9993,2 46035  53.1611  60.4590 0001133  97.7945 262.3184 15.30192404322945
STARLINK-1560,46036,53.1618,0.0001469,15.30182573,474.26033873107644,476.2738688567715,1 46036U 20055K   26160.44333217 -.00001195  00000+0 -28226-4 0  9994,2 46036  53.1618  60.5328 0001469  91.8982 268.2187 15.30182573322945
STARLINK-1569,46039,53.1596,0.0001418,15.30192266,474.266353248574,476.2099704444727,1 46039U 20055N   26160.46017882  .00005785  00000+0  20733-3 0  9997,2 46039  53.1596  60.4374 0001418  74.5718 285.5439 15.30192266322933
STARLINK-1582,46043,53.1602,0.0001437,15.31715634,469.7092145543211,471.6775684088316,1 46043U 20055S   26160.01905935 -.00014869  00000+0 -46808-3 0  9994,2 46043  53.1602  61.8786 0001437  96.6870 263.4295 15.31715634322872
STARLINK-1591,46045,53.1602,0.0001428,15.30211787,474.2012221379937,476.15852943771915,1 46045U 20055U   26160.42750762  .00002141  00000+0  84353-4 0  9993,2 46045  53.1602  60.5894 0001428  87.0257 273.0907 15.30211787322914
STARLINK-1524,46047,53.1613,0.0001331,15.31696291,469.8394645842909,471.66263858362254,1 46047U 20055W   26160.37990396  .00003979  00000+0  13994-3 0  9990,2 46047  53.1613  47.4990 0001331 105.1204 254.9945 15.31696291323117
STARLINK-1527,46048,53.1583,8.93e-05,15.31704643,470.1145512394969,471.3377581989289,1 46048U 20055X   26159.91848456  .00009658  00000+0  32254-3 0  9998,2 46048  53.1583  49.6270 0000893  95.4084 264.7019 15.31704643323019
STARLINK-1540,46051,53.1612,0.0001287,15.317074,469.83648866922067,471.5993839298244,1 46051U 20055AA  26159.96978048  .00007588  00000+0  25597-3 0  9990,2 46051  53.1612  49.6002 0001287  98.6719 261.4429 15.31707400323065
STARLINK-1541,46052,53.158,0.0004198,15.84960542,313.62546143840973,319.2462247974918,1 46052U 20055AB  26161.00004630  .00164866  00000+0  67899-3 0  9990,2 46052  53.1580  27.8080 0004198 246.4487 327.5465 15.84960542  5969
STARLINK-1543,46053,53.16,0.0001384,15.31692209,469.8153320992478,471.71110768011386,1 46053U 20055AC  26160.39854635  .00003225  00000+0  11567-3 0  9992,2 46053  53.1600  47.4061 0001384  90.6102 269.5058 15.31692209323125
STARLINK-1548,46054,53.1631,0.0001475,15.31685642,469.7725803409485,471.7930116807711,1 46054U 20055AD  26160.41253603  .00002796  00000+0  10186-3 0  9992,2 46054  53.1631  47.4153 0001475  95.7286 264.3884 15.31685642323125
STARLINK-1554,46055,53.1599,0.0001167,15.31686162,469.9819771348439,471.5805146534358,1 46055U 20055AE  26160.39389359  .00000879  00000+0  40093-4 0  9999,2 46055  53.1599  47.4452 0001167  91.6383 268.4752 15.31686162323129
STARLINK-1564,46058,53.1625,0.0001096,15.30184344,474.51068330166345,476.01294832208987,1 46058U 20055AH  26160.38491380  .00001545  00000+0  64301-4 0  9998,2 46058  53.1625  48.4543 0001096  91.8869 268.2257 15.30184344323106
